"","name","type","address","city","state","zip","lat","lon"
"1","1933 BREWING COMPANY","Manufacturer (brewery)","4025 S MASON ST UNIT C","FORT COLLINS","CO",80525,40.5311387,-105.0801963
"2","300 SUNS BREWING","Manufacturer (brewery)","335 1ST AVE UNIT C","LONGMONT","CO",80501,40.1598532,-105.1011372
"3","38 STATE BREWING COMPANY","Manufacturer (brewery)","8071 A SOUTH BROADWAY","LITTLETON","CO",80122,39.5690263,-104.9886201
"4","4 NOSES BREWING COMPANY","Manufacturer (brewery)","8855 W 116TH CIR, STE 4","BROOMFIELD","CO",80021,39.90658,-105.09859
"5","7 HERMITS BREWING COMPANY","Brew Pub (city)","0717 SYLVAN LAKE RD #B-1-01","EAGLE","CO",81631,39.6399078,-106.8322597
"6","ALPINE DOG BREWING COMPANY LLC","Manufacturer (brewery)","1505","DENVER","CO",80218,39.689219,-104.9407423
"7","FORT COLLINS BREWERY/GRAVITY 1020","Brew Pub (city)","1020 E LINCOLN AVE","FORT COLLINS","CO",805242509,40.5891748,-105.0585726
"8","AMICAS","Brew Pub (city)","136 E 2ND ST","SALIDA","CO",812012115,38.8191908,-102.3498184
"10","ASCEND BREWING COMPANY","Manufacturer (brewery)","8381 E BRIARWOOD BLVD","CENTENNIAL","CO",80112,39.590154,-104.891942
"11","ASHER BREWING COMPANY LLC","Manufacturer (brewery)","4699 NAUTILUS CT STE 104","BOULDER","CO",803015304,40.059769,-105.2059084
"12","ASPEN BREWING COMPANY","Manufacturer (brewery)","304 EAST HOPKINS AVENUE","ASPEN","CO",81611,39.190334,-106.820307
"13","AVALANCHE BREWING CO","Brew Pub (city)","1067 BLAIR ST","SILVERTON","CO",81433,37.8097608,-107.664811
"14","AVERY BREWING COMPANY","Manufacturer (brewery)","5763 ARAPAHOE AVE","BOULDER","CO",803031350,40.0161556,-105.2187145
"15","BRECKENRIDGE BREWERY DENVER","Brew Pub (city)","2220 BLAKE ST","DENVER","CO",802052013,39.756297,-104.991249
"16","STATION 26 BREWING CO","Manufacturer (brewery)","7045 E 38TH AVE","DENVER","CO",80207,39.7696012,-104.9059586
"17","BARRELS AND BOTTLES BREWERY","Brew Pub (city)","600 12TH STREET UNIT 180","GOLDEN","CO",80401,39.7565255,-105.2199546
"18","BRECKENRIDGE BREWERY","Brew Pub (city)","600 S MAIN ST","BRECKENRIDGE","CO",80424,39.4761913,-106.0438304
"19","BEER BY DESIGN BREWERY","Manufacturer (brewery)","2100 E 112TH AVE UNIT 1","NORTHGLENN","CO",80233,39.898834,-104.963312
"20","BERTHOUD BREWING CO","Manufacturer (brewery)","450 8TH ST UNIT B","BERTHOUD","CO",80513,40.304639,-105.0850895
"21","BERYL'S BEER CO","Manufacturer (brewery)","3120 C BLAKE ST","DENVER","CO",80205,39.7647494,-104.9803474
"22","BIG BEAVER BREWING COMPANY LTD","Manufacturer (brewery)","2707 W EISENHOWER BLVD UNIT #9","LOVELAND","CO",805373141,40.4079804,-105.114465
"23","BIG CHOICE BREWING LLC","Manufacturer (brewery)","7270 W 118TH PL UNIT A","BROOMFIELD","CO",800206904,39.909939,-105.078369
"24","BIG THOMPSON BREWERY","Manufacturer (brewery)","114 E 15TH ST","LOVELAND","CO",80538,40.408189,-105.0754747
"25","BLACK BOTTLE BREWERY","Brew Pub (city)","1611 S COLLEGE AVE STE 1605/1609","FORT COLLINS","CO",805251074,40.5662462,-105.0785806
"26","BREW PUB & KITCHEN","Brew Pub (city)","117 W COLLEGE DR","DURANGO","CO",81301,37.2706098,-107.882328
"27","BLACK SHIRT BREWING COMPANY LLC","Manufacturer (brewery)","3719 WALNUT ST","DENVER","CO",802052436,39.769858,-104.972962
"28","BLACK SKY BREWERY","Brew Pub (city)","490 SANTA FE DRIVE","DENVER","CO",80204,39.723938,-104.998298
"29","BLUE SPRUCE BREWING","Brew Pub (city)","4151 E COUNTY LINE RD UNIT G","CENTENNIAL","CO",80122,39.5661248,-104.9406895
"30","BONFIRE BREWING LLC","Manufacturer (brewery)","127 SECOND ST","EAGLE","CO",81631,38.0715911,-103.2176431
"31","BONFIRE BREWING","Manufacturer (brewery)","936 CHAMBERS COURT, UNITS B2B, B3 AND B4","EAGLE","CO",81631,39.6552634,-106.8286507
"32","BOOTSTRAP BREWING","Manufacturer (brewery)","6778 N 79TH ST","NIWOT","CO",805037175,40.0998676,-105.1683954
"33","BOTTOM SHELF BREWERY","Brew Pub (city)","118 EAST MILL ST","BAYFIELD","CO",81122,37.225009,-107.599083
"34","BOULDER BEER COMPANY","Brew Pub (city)","2880 WILDERNESS PL","BOULDER","CO",803012258,40.0266222,-105.2480501
"35","SMUGGLER'S BREW PUB AND GRILLE","Brew Pub (city)","225 SOUTH PINE STREET","TELLURIDE","CO",81435,37.935736,-107.811659
"36","TASTING ROOM AT BRECKENRIDGE BREWERY","Brew Pub (city)","471 KALAMATH","DENVER","CO",802045019,39.7236683,-105.0006015
"37","BROKEN COMPASS BREWING COMPANY","Manufacturer (brewery)","68 CONTINENTAL COURT UNIT B-12","BRECKENRIDGE","CO",80424,39.5148941,-106.0534867
"38","RICKOLI'S","Manufacturer (brewery)","4335 WADSWORTH BLVD","WHEAT RIDGE","CO",80033,39.7756487,-105.0815258
"39","THREE BARREL BREWING CO / BRICKER BEER","Manufacturer (brewery)","586 COLUMBIA ST","DEL NORTE","CO",811322200,37.678011,-106.354316
"40","LIQUID MECHANICS BREWING COMPANY","Manufacturer (brewery)","297 N HIGHWAY 287, SUITE 100","LAFAYETTE","CO",80026,39.999521,-105.1035763
"41","BRISTOL BREWING CO","Manufacturer (brewery)","1604 S CASCADE AVE SUITE 100","COLORADO SPRINGS","CO",80905,38.8109918,-104.8274922
"42","BROKEN PLOW BREWERY","Manufacturer (brewery)","4731 W 10TH STREET UNIT G","GREELEY","CO",80634,40.422,-104.7573353
"43","BRU HANDBUILT ALES AND EATS","Brew Pub (city)","5290 ARAPAHOE UINT I","BOULDER","CO",80301,40.0141202,-105.2294725
"44","FACTOTUM BREWHOUSE","Manufacturer (brewery)","3845 LIPAN ST","DENVER","CO",80211,39.7702264,-105.0021368
"45","BUCKHORN BREWERS LLC","Manufacturer (brewery)","4229 WEST EISENHOWER BLVD, RAINBOW PLAZA, UNIT A","LOVELAND","CO",80537,40.3977612,-105.0749801
"46","PUG RYAN'S","Brew Pub (city)","104 VILLAGE PL","DILLON","CO",80435,39.6280667,-106.0464544
"47","BURGUNDIAN","Manufacturer (brewery)","4745 LIPAN ST","DENVER","CO",80211,39.7824103,-105.001709
"48","BUTCHERKNIFE BREWING COMPANY","Manufacturer (brewery)","2875 ELK RIVER ROAD","STEAMBOAT SPRINGS","CO",80487,40.5107724,-106.858265
"49","REVOLUTION BREWING","Manufacturer (brewery)","302 GRAND AVE","PAONIA","CO",81428,38.8692,-107.598
"50","LOFTY BREWING COMPANY","Manufacturer (brewery)","2935 N PROSPECT ST, STE 108","COLORADO SPRINGS","CO",80907,38.8731269,-104.810811
"51","CARBONDALE BEER WORKS","Brew Pub (city)","647 MAIN ST","CARBONDALE","CO",816231934,39.400717,-107.213032
"52","CARVERS","Brew Pub (city)","1022 MAIN AVE","DURANGO","CO",813015124,37.2748212,-107.8799479
"53","CASEY BREWING AND BLENDING LLC","Manufacturer (brewery)","3421 GRAND AVE  SUITE  E","GLENWOOD SPRINGS","CO",81601,39.5157512,-107.3196589
"54","CAUTION BREWING CO LLC","Manufacturer (brewery)","1057 S WADSWORTH BLVD # 60","DENVER","CO",80226,39.697924,-105.0821519
"55","CAUTION: BREWING COMPANY","Manufacturer (brewery)","12445 E 39TH AVE #314","DENVER","CO",802393462,39.7727245,-104.8442459
"56","CHAIN REACTION BREWING COMPANY LLC","Manufacturer (brewery)","902 S LIPAN STREET","DENVER","CO",80223,39.6995433,-105.0012001
"57","BJ'S RESTAURANT & BREWHOUSE","Brew Pub (city)","1690 28TH ST","BOULDER","CO",80301,40.0177527,-105.2578141
"58","CITY STAR BREWING","Manufacturer (brewery)","321 MOUNTAIN AVE UNIT A","BERTHOUD","CO",80513,40.304884,-105.078995
"59","POTTS CLUBHOUSE","Brew Pub (city)","1427 W ELIZABETH","FORT COLLINS","CO",805214440,40.573884,-105.102499
"60","COLORADO MOUNTAIN BREWERY","Brew Pub (city)","600 S 21ST ST","COLORADO SPRINGS","CO",809053762,38.8399165,-104.859644
"61","CODA BREWING COMPANY","Manufacturer (brewery)","2101 NORTH URSULA STREET UNIT 10","AURORA","CO",80045,39.748689,-104.838388
"62","COLORADO BOY PUB & BREWERY","Brew Pub (city)","602 CLINTON ST","RIDGWAY","CO",81432,38.1524265,-107.7577187
"63","PIKES PEAK BREWING COMPANY","Brew Pub (county)","1756 LAKE WOODMOOR DR","MONUMENT","CO",801329074,39.093785,-104.860711
"64","PUMPHOUSE BREWERY","Brew Pub (city)","540 MAIN ST","LONGMONT","CO",80501,40.1687524,-105.1021248
"65","COMRADE BREWING COMPANY","Manufacturer (brewery)","7667 E ILIFF AVE UNIT F","DENVER","CO",80231,39.6757079,-104.898327
"66","MOONLIGHT PIZZA","Brew Pub (city)","242 F ST","SALIDA","CO",812012104,38.5349203,-105.9935648
"67","COOPERSMITHS PUB & BREWING","Brew Pub (city)","5 OLD TOWN SQUARE","FORT COLLINS","CO",805242463,40.58728,-105.0756572
"68","COPPER KETTLE BREWING CO","Manufacturer (brewery)","1338 S VALENTIA ST #100 & 110","DENVER","CO",802472297,39.6923203,-104.8904572
"69","CRABTREE BREWING COMPANY LTD","Manufacturer (brewery)","2961 29TH STREET","GREELEY","CO",80631,40.3896751,-104.7271911
"70","CRAZY MOUNTAIN BREWING COMPANY","Manufacturer (brewery)","439 EDWARDS ACCESS RD B-102","EDWARDS","CO",81632,39.6487957,-106.5886443
"71","CREEDE BREWING COMPANY","Brew Pub (county)","7314 WASHINGTON STREET","DENVER","CO",80229,39.8293269,-104.9779409
"72","CROOKED STAVE ARTISAN BEER PROJECT","Manufacturer (brewery)","1441 W 46TH AVE UNIT 19","DENVER","CO",80211,39.7807157,-105.0047277
"73","CROW HOP BREWING COMPANY LTD.","Manufacturer (brewery)","217 E. 3RD STREET","LOVELAND","CO",80537,40.394575,-105.074069
"74","CRYSTAL SPRINGS BREWING COMPANY","Manufacturer (brewery)","876 SUNSHINE CANYON DRIVE","BOULDER","CO",80302,40.0246508,-105.303254
"75","CRYSTAL SPRINGS BREWING COMPANY","Manufacturer (brewery)","657 S TAYLOR AVE UNIT E","LOUISVILLE","CO",80027,39.9607035,-105.1201133
"76","DAD AND DUDE BREWERIA","Brew Pub (city)","6730 S CORNERSTAR WAY STE D","AURORA","CO",80016,39.5940378,-104.8063467
"77","DAM BREWERY","Brew Pub (city)","754 ANEMONE TRAIL","DILLON","CO",80435,39.6267255,-106.0591965
"78","DECLARATION BREWING COMPANY","Manufacturer (brewery)","2030 S CHEROKEE ST","DENVER","CO",80223,39.6796071,-104.9910971
"79","C B POTTS/BIG HORN BREWING CO OF COLO","Brew Pub (city)","6575 GREENWOOD PLZ BLVD","GREENWOOD VILLAGE","CO",801114933,39.5973169,-104.8957649
"80","DENVER BEER CO PRODUCTION LLC","Manufacturer (brewery)","4455 JASON ST","DENVER","CO",80211,39.7770352,-105.0003325
"81","DENVER BEER CO","Manufacturer (brewery)","1695 PLATTE ST","DENVER","CO",802021123,39.7582716,-105.0073192
"82","DENVER PEARL BREWING COMPANY LLC","Manufacturer (brewery)","1875 S PEARL ST","DENVER","CO",80210,39.6825659,-104.9807821
"83","DIEBOLT BREWING COMPANY, LLC","Manufacturer (brewery)","3855 MARIPOSA STREET","DENVER","CO",80211,39.7703502,-105.0032062
"84","RIFLE BREWING COMPANY","Brew Pub (city)","412 PARK AVENUE","RIFLE","CO",816503420,39.5328595,-107.7867499
"85","DODGETOWN CREEK BREWING CO","Manufacturer (brewery)","36730 DEMOCRACY DRIVE BLDG A","TRINIDAD","CO",81082,37.2177272,-104.490543
"86","DOLORES RIVER BREWERY LLC","Brew Pub (city)","100 S 4TH ST","DOLORES","CO",81323,37.473538,-108.504895
"87","DOSTAL ALLEY SALOON & GAMBLING EMPORIUM","Brew Pub (city)","1 DOSTAL ALLEY","CENTRAL CITY","CO",80427,39.8019322,-105.5141639
"88","BAERE BREWING COMPANY","Manufacturer (brewery)","320 N BROADWAY","DENVER","CO",80203,39.7214236,-104.9870303
"89","DRY DOCK BREWING COMPANY","Manufacturer (brewery)","2801 TOWER RD","AURORA","CO",80011,39.756605,-104.773554
"90","DRY DOCK BREWING CO","Manufacturer (brewery)","15120 E HAMPDEN AVE","AURORA","CO",800143906,39.6526525,-104.8124366
"91","DURANGO BREWING COMPANY","Manufacturer (brewery)","3000 MAIN AVE","DURANGO","CO",813014245,37.2976358,-107.8721156
"92","BACKCOUNTRY BREWERY AND RESTAURANT","Brew Pub (city)","720 MAIN ST","FRISCO","CO",80443,39.576395,-106.092854
"93","ECHO BREWING CASK & BARREL INC","Brew Pub (city)","600 AND 620 BRIGGS STREET","ERIE","CO",80516,40.050551,-105.047816
"94","ECHO BREWING COMPANY","Manufacturer (brewery)","5969 IRIS PKWY UNIT C","FREDERICK","CO",805306412,40.1117501,-104.9454008
"95","EDDYLINE PUB & BREWERY","Brew Pub (city)","102 LINDERMAN AVE","BUENA VISTA","CO",812119184,38.8405579,-106.1326201
"96","ELEVATION BEER COMPANY","Manufacturer (brewery)","115 PAHLONE PKWY","PONCHA SPRINGS","CO",81242,38.5181914,-106.0654052
"97","ELK MOUNTAIN BREWING INC","Manufacturer (brewery)","18921 PLAZA DR #104","PARKER","CO",801349679,39.5268545,-104.7684673
"98","EPIC BREWING COMPANY","Manufacturer (brewery)","3001 - 3025 WALNUT ST","DENVER","CO",80205,39.7635099,-104.9809896
"99","EQUINOX BREWING COMPANY INC","Manufacturer (brewery)","133 REMINGTON ST","FORT COLLINS","CO",805242833,40.5863442,-105.0758296
"100","RIVER NORTH BREWERY","Manufacturer (brewery)","2401 BLAKE ST","DENVER","CO",802052199,39.7583991,-104.9893989
"101","FATE ALE HOUSE & BREWING COMPANY","Brew Pub (city)","1600 38TH ST  STE A","BOULDER","CO",80301,40.015095,-105.245735
"102","FEED STORE THE","Brew Pub (city)","116 N 2ND ST","WESTCLIFFE","CO",81252,38.137036,-105.4688868
"103","FERMAENTRA","Manufacturer (brewery)","1715 E EVANS AVE","DENVER","CO",80210,39.6787089,-104.9670457
"104","FICTION BEER COMPANY","Manufacturer (brewery)","7101 E COLFAX AVE","DENVER","CO",80220,39.7402193,-104.9057379
"105","FIELDHOUSE BREWING COMPANY LLC","Manufacturer (brewery)","521 S TEJON ST","COLORADO SPRINGS","CO",80903,38.8259701,-104.8236428
"106","FINKEL & GARF BREWING CO.","Manufacturer (brewery)","5455 SPINE RD UNIT A","BOULDER","CO",80301,40.074001,-105.202999
"107","CB & POTTS","Brew Pub (city)","555 ZANG ST","BROOMFIELD","CO",800218221,39.9280582,-105.1337949
"108","FLOODSTAGE ALE WORKS","Brew Pub (city)","170 S MAIN ST","BRIGHTON","CO",806011611,39.9840025,-104.8218488
"109","ARVADA BEER COMPANY","Manufacturer (brewery)","5600 OLDE WADSWORTH BLVD","ARVADA","CO",800022533,39.7993081,-105.0812513
"110","FORMER FUTURE BREWING COMPANY","Manufacturer (brewery)","1290 S BROADWAY","DENVER","CO",80210,39.6933943,-104.9871437
"111","FOSSIL BREWING COMPANY","Manufacturer (brewery)","2845 ORE MILL RD UNIT # 1","COLORADO SPRINGS","CO",80904,38.847991,-104.870091
"112","MAIN STREET BREWERY & RESTUARANT","Brew Pub (city)","21 E MAIN","CORTEZ","CO",813213240,37.348308,-108.584576
"113","OLD MILL BREWERY","Brew Pub (city)","5798 S RAPP ST","LITTLETON","CO",801201929,39.6119764,-105.0195986
"114","FREEDOM'S EDGE BREWING CO","Brew Pub (city)","224 LINDEN ST","FORT COLLINS","CO",80524,40.588397,-105.0746539
"115","FRONT RANGE BREWING COMPANY","Brew Pub (city)","400 W SOUTH BOULDER RD, STE 1650","LAFAYETTE","CO",80026,39.9856334,-105.0949029
"116","FUNKWERKS","Manufacturer (brewery)","1900 LINCOLN AVE UNIT B","FORT COLLINS","CO",805242750,40.5830931,-105.0420578
"117","GORDON BIERSCH BREWERY RESTAURANT","Brew Pub (city)","ONE W FLATIRON CROSSING DR #428","BROOMFIELD","CO",80021,39.932939,-105.132472
"118","JOYRIDE BREWING COMPANY","Manufacturer (brewery)","2501 SHERIDAN BLVD UNITS B,C,D","EDGEWATER","CO",80214,39.7532077,-105.053674
"119","GLENWOOD CANYON BREWING CO LLC","Brew Pub (city)","402 7TH ST","GLENWOOD SPRINGS","CO",816023435,39.5476526,-107.3231729
"120","GOLDEN CITY BREWERY","Brew Pub (city)","920 1/2 12TH ST BLDG 3","GOLDEN","CO",804011114,39.7546856,-105.2236543
"121","GRAND LAKE BREWING COMPANY THE","Manufacturer (brewery)","10863 HIGHWAY 34","GRAND LAKE","CO",80447,40.2024759,-105.863053
"122","GRAVITY BREWING","Manufacturer (brewery)","1150 PINE ST UNIT B","LOUISVILLE","CO",800271463,39.9760945,-105.1285908
"123","GREAT DIVIDE BREWING CO","Manufacturer (brewery)","2201 ARAPAHOE ST","DENVER","CO",802052512,39.753793,-104.9884662
"124","GREAT STORM BREWING INC","Manufacturer (brewery)","204 MOUNT VIEW LANE UNIT 3","COLORADO SPRINGS","CO",809074367,38.8900758,-104.8179674
"125","GRIMM BROTHERS BREWHOUSE LLC","Manufacturer (brewery)","547 N DENVER AVE","LOVELAND","CO",805375127,40.3965621,-105.0472499
"126","GRIST BREWING COMPANY","Manufacturer (brewery)","9150 COMMERCE CENTER CIRCLE SUITE 300","HIGHLANDS RANCH","CO",80129,39.5491319,-105.0338446
"127","GROSSEN BART BREWERY","Manufacturer (brewery)","1025 DELAWARE AVE, STE GB","LONGMONT","CO",80501,40.1545463,-105.1092287
"128","GUNNISON BREWERY THE","Brew Pub (city)","138 N MAIN STREET","GUNNISON","CO",812302331,38.5452261,-106.9266313
"129","HALL BREWING CO TAP ROOM","Manufacturer (brewery)","10970 S PARKER RD UNIT A 11 & 12","PARKER","CO",80134,30.3190103,-89.854026
"130","HALL BREWING COMPANY","Manufacturer (brewery)","8530 VINEGAROON UNIT B","PARKER","CO",80138,39.4846192,-104.6970245
"131","SILVERTON BREWERY","Brew Pub (city)","1333 GREENE ST","SILVERTON","CO",81433,37.8127704,-107.6633601
"132","HIDEAWAY PARK BREWERY","Manufacturer (brewery)","78927 US HIGHWAY 40","WINTER PARK","CO",80482,39.9180289,-105.7840571
"133","ESTES PARK BREWERY AT THE EVENT CENTER","Brew Pub (city)","470 PROSPECT VLG DR","ESTES PARK","CO",80517,40.3714189,-105.526121
"134","HIGH HOPS BREWERY","Manufacturer (brewery)","6461 HIGHWAY 392","WINDSOR","CO",805503010,40.4806871,-104.9356128
"135","CHESTERFIELD BOTTOMSLY & POTTS","Brew Pub (county)","43 W CENTENNIAL BLVD","HIGHLANDS RANCH","CO",801262323,39.5626596,-104.988452
"136","HOGSHEAD BREWERY","Manufacturer (brewery)","4460 W 29TH AVE","DENVER","CO",802123015,39.7581892,-105.045106
"137","HORSE & DRAGON BREWING COMPANY","Manufacturer (brewery)","124 RACQUETTE DRIVE","FORT COLLINS","CO",80524,40.589644,-105.045623
"138","HORSEFLY BREWING COMPANY","Brew Pub (city)","846 EAST MAIN ST","MONTROSE","CO",81401,38.482718,-107.871374
"139","CANNONBALL CREEK BREWING COMPANY","Manufacturer (brewery)","393 NORTH WASHINGTON AVENUE","GOLDEN","CO",80403,39.7687099,-105.2348743
"140","LOVELAND ALEWORKS","Manufacturer (brewery)","118 W 4TH ST","LOVELAND","CO",805375523,40.395351,-105.0773372
"141","LEFT HAND BREWING CO TABERNASH BREWING CO","Manufacturer (brewery)","1265 BOSTON AVE","LONGMONT","CO",805015809,40.1582861,-105.1150233
"142","INDUSTRIAL REVOLUTION BREWING COMPANY LLC THE","Manufacturer (brewery)","285 CHEESMAN ST","ERIE","CO",80516,40.0515339,-105.0486787
"143","NANO 108 BREWING COMPANY","Manufacturer (brewery)","2402 WAYNOKA RD","COLORADO SPRINGS","CO",809151612,38.8666517,-104.7178298
"144","IRON BIRD BREWING","Manufacturer (brewery)","402 SOUTH NEVADA AVENUE","COLORADO SPRINGS","CO",80903,38.8279939,-104.82259
"145","J WELLS BREWERY","Manufacturer (brewery)","2516 49TH STREET, UNIT 5","BOULDER","CO",80301,40.0237742,-105.2376878
"146","JAGGED MOUNTAIN CRAFT BREWERY","Manufacturer (brewery)","1127-1139 20TH STREET","DENVER","CO",80202,39.75226,-104.9913841
"147","LOCAVORE BEER WORKS","Manufacturer (brewery)","5950 S PLATTE CANYON RD UNIT D-13-15","LITTLETON","CO",80123,39.608583,-105.036921
"148","BLACK SHEEP BREWING","Manufacturer (brewery)","13 NAVAJO TRAIL UNIT B","NEDERLAND","CO",80466,39.9657265,-105.5130991
"149","VINDICATION BREWING COMPANY","Manufacturer (brewery)","6880 WINCHESTER CIRCLE SUITE F","BOULDER","CO",80301,40.076775,-105.1930579
"150","KOKOPELLI BEER COMPANY","Brew Pub (city)","8921-8931 HARLAN ST","WESTMINSTER","CO",800312931,39.8581712,-105.0637437
"151","J FARGOS","Brew Pub (city)","1209 E MAIN ST","CORTEZ","CO",813212910,37.3484375,-108.5702729
"152","GORE RANGE BREWERY","Brew Pub (county)","0105 EDWARDS VILLAGE BLVD UNIT H","EDWARDS","CO",816329914,39.6436278,-106.595283
"153","COLORADO+LIQUID ART WORKS","Brew Pub (city)","6995 W 38TH AVE","WHEAT RIDGE","CO",800334965,39.769663,-105.074133
"154","LIBRARY SPORTS GRILLE AND BREWERY","Brew Pub (city)","78491 US HWY 40","WINTER PARK","CO",80482,39.9240956,-105.7864445
"155","LIVING THE DREAM BREWING COMPANY LLC","Manufacturer (brewery)","12305 DUMONT WAY UNIT A","LITTLETON","CO",80125,39.540332,-105.039832
"156","LONE TREE BREWING COMPANY","Manufacturer (brewery)","8222 PARK MEADOWS DR","LONE TREE","CO",801242746,39.5628077,-104.8926235
"157","LOST HIGHWAY BREWING COMPANY","Brew Pub (city)","520-526 E COLFAX AVE","DENVER","CO",802032018,39.7397781,-104.9804102
"158","LOWDOWN BREWERY AND PIZZERIA","Brew Pub (city)","800 LINCOLN ST, UNIT 2","DENVER","CO",80203,39.7293493,-104.9858064
"159","IRONWORKS BREWERY & PUB","Brew Pub (city)","12354 W ALAMEDA PKWY #E","LAKEWOOD","CO",802282852,39.7041525,-105.1374003
"160","ELDO THE","Brew Pub (city)","215 ELK AVE","CRESTED BUTTE","CO",81224,38.8697773,-106.987226
"161","MANCOS BREWING COMPANY","Brew Pub (city)","550 RAILROAD AVE","MANCOS","CO",81328,37.3470248,-108.2952997
"162","MANITOU BREWING COMPANY","Brew Pub (city)","725 MANITOU AVE STE 3,4,5 & 6","MANITOU SPRINGS","CO",80829,38.8570179,-104.915651
"163","MELANIE BREWERY COMPANY INC","Manufacturer (brewery)","146 SHORE DRIVE","PORTAGE","IN",46368,41.6270183,-87.1983336
"164","SANDLOT BREWERY","Manufacturer (brewery)","2145 BLAKE ST","DENVER","CO",802052010,39.7554755,-104.9928098
"166","MOCKERY BREWING LLC","Manufacturer (brewery)","3501 DELGANY ST","DENVER","CO",80216,39.7712142,-104.9797391
"167","COPPER CLUB BREWING COMPANY","Manufacturer (brewery)","233 E ASPEN #A","FRUITA","CO",81521,39.159157,-108.73148
"168","TOMMY KNOCKER BREWERY & PUB","Brew Pub (city)","1401 MINER ST","IDAHO SPRINGS","CO",80452,39.7415739,-105.5176984
"169","MOUNTAIN TOAD BREWING","Manufacturer (brewery)","900 WASHINGTON AVE","GOLDEN","CO",80401,39.7580981,-105.2242523
"170","OURAYLE HOUSE","Manufacturer (brewery)","703 MAIN ST","OURAY","CO",81427,38.0242968,-107.671194
"171","MU BREWERY","Manufacturer (brewery)","9735 E COLFAX AVE","AURORA","CO",800102107,39.740434,-104.8746332
"172","NEW BELGIUM BREWING CO","Manufacturer (brewery)","500 LINDEN ST","FORT COLLINS","CO",805242426,40.593415,-105.066874
"173","NEW PLANET BEER","Manufacturer (brewery)","6560 ODELL PLACE UNIT D","BOULDER","CO",80301,40.073226,-105.200971
"174","MAHOGANY RIDGE BREWERY & GRILL","Brew Pub (city)","435 LINCOLN AVE","STEAMBOAT SPRINGS","CO",804875021,40.4837578,-106.8313355
"175","ODD13 BREWING","Manufacturer (brewery)","301 E SIMPSON ST","LAFAYETTE","CO",80026,39.9982401,-105.0880402
"176","ODYSSEY BEERWERKS, LLC","Manufacturer (brewery)","5535 W 56TH AVE, STE 107-108","ARVADA","CO",80002,39.8007911,-105.0589359
"177","OSKAR BLUES BREWERY, TASTY WEASEL TAP ROOM","Manufacturer (brewery)","1800 PIKE RD","LONGMONT","CO",805016793,40.139056,-105.1220386
"178","OSKAR BLUES BREWERY","Manufacturer (brewery)","339 MAIN ST UNIT B & D","LONGMONT","CO",80504,42.0935281,-90.1564781
"179","OUR MUTUAL FRIEND INC","Manufacturer (brewery)","2810 LARIMER ST","DENVER","CO",802052223,39.7605257,-104.9824253
"180","OURAY BREWERY","Brew Pub (city)","607 MAIN ST","OURAY","CO",814279903,38.0229401,-107.6711242
"181","OURAY BREWING COMPANY","Brew Pub (city)","1900 MAIN ST","OURAY","CO",81427,38.0295054,-107.6720894
"182","PALISADE BREWING COMPANY","Brew Pub (city)","200 PEACH STREET","PALISADE","CO",81526,39.1112068,-108.3532894
"183","PARADOX BEER COMPANY INC","Manufacturer (brewery)","106 E VILLAGE TERRACE STE E","WOODLAND PARK","CO",808667009,38.968728,-105.034305
"184","PATEROS CREEK BEER","Manufacturer (brewery)","242 B NORTH COLLEGE AVE","FORT COLLINS","CO",805242405,40.5900715,-105.0764995
"185","STEAMWORKS BREWING CO","Brew Pub (city)","801 E 2ND AVE","DURANGO","CO",813015425,37.272356,-107.880023
"186","WEST FLANDERS BREWING COMPANY","Brew Pub (city)","1125 PEARL ST","BOULDER","CO",80302,40.018046,-105.280693
"187","PHANTOM CANYON BREWING COMPANY","Brew Pub (city)","2 E PIKES PEAK AVE","COLORADO SPRINGS","CO",809031504,38.8342415,-104.8249056
"188","POST BREWING COMPANY THE","Brew Pub (city)","105 WEST EMMA STREET","LAFAYETTE","CO",80026,39.9945274,-105.0912852
"189","POWDER KEG BREWING COMPANY","Brew Pub (county)","101 SECOND AVE","NIWOT","CO",80544,40.10338,-105.1728818
"190","PROST BREWING COMPANY","Manufacturer (brewery)","2540 19TH STREET","DENVER","CO",802113910,39.7602705,-105.0039823
"191","DEEP DRAFT BREWERY COMPANY LLC","Manufacturer (brewery)","1604 EAST 17TH AVE","DENVER","CO",80218,39.7432321,-104.968383
"192","EVERGREEN TAP HOUSE","Brew Pub (county)","2962 EVERGREEN PKY SUITE 200","EVERGREEN","CO",80439,39.6605166,-105.3522007
"193","RED LEG BREWING COMPANY","Manufacturer (brewery)","4630 FORGE ROAD STE B","COLORADO SPRINGS","CO",80907,38.8980455,-104.8417225
"194","RENEGADE BREWING COMPANY","Manufacturer (brewery)","918 W 1ST AVE","DENVER","CO",80204,39.7183729,-104.9987952
"195","RENEGADE BREWING COMPANY","Manufacturer (brewery)","925 W 9TH AVE","DENVER","CO",802044338,39.7305225,-104.9991947
"196","WOLF ROCK BREWING COMPANY","Brew Pub (county)","0091 RIVER RUN RD C6","KEYSTONE","CO",804357700,39.6068041,-105.9450205
"197","COLORADO MOUNTAIN BREWERY","Brew Pub (city)","11202 RAMPART HILLS VIEW","COLORADO SPRINGS","CO",809214180,38.9936355,-104.8120254
"198","ROARING FORK BEER COMPANY","Manufacturer (brewery)","1831 DOLORES WAY","CARBONDALE","CO",81623,39.4022054,-107.2111628
"199","ROCKSLIDE BREW PUB","Brew Pub (city)","401 MAIN","GRAND JUNCTION","CO",815032511,39.067003,-108.565948
"200","ROCKY MOUNTAIN BREWERY","Manufacturer (brewery)","625 PAONIA ST","COLORADO SPRINGS","CO",809153727,38.8412113,-104.7164896
"201","ROCKYARD BREWING CO","Brew Pub (county)","880 W CASTLETON RD","CASTLE ROCK","CO",801097548,39.4091075,-104.8698478
"202","KANNAH CREEK BREWING CO","Brew Pub (city)","1960 N 12TH STREET","GRAND JUNCTION","CO",815012912,39.0853456,-108.5519245
"203","EDGEWATER BREWERY","Brew Pub (city)","905 STRUTHERS AVE","GRAND JUNCTION","CO",81501,39.055173,-108.557323
"204","ROYAL GORGE BREWING COMPANY","Brew Pub (city)","413 MAIN ST","CANON CITY","CO",812123733,38.440458,-105.2415989
"205","SHOES AND BREWS","Brew Pub (city)","63 S PRATT PARKWAY, UNIT B","LONGMONT","CO",80501,40.158039,-105.1075677
"206","SAINT PATRICK'S BREWING COMPANY","Manufacturer (brewery)","2842 W BOWLES AVE","LITTLETON","CO",80120,39.6131267,-105.021367
"207","SAN LUIS VALLEY BREWING COMPANY","Brew Pub (city)","428 SAN JUAN AVE","ALAMOSA","CO",811012554,37.4688047,-105.8671178
"208","SANITAS BREWING CO","Manufacturer (brewery)","3550 FRONTIER AVE UNIT A","BOULDER","CO",80301,40.0221171,-105.247854
"209","RIFF RAFF BREWING COMPANY","Brew Pub (city)","274 PAGOSA ST","PAGOSA SPRINGS","CO",81147,37.2687868,-107.0074915
"210","PITCHERS BREWERY & SPORTS SHACK","Brew Pub (city)","2501 11TH AVE","GREELEY","CO",806316927,40.3970417,-104.6973666
"211","SHAMROCK BREWING CO","Brew Pub (city)","108 WEST 3RD ST","PUEBLO","CO",810033225,38.2695005,-104.6077216
"212","SHINE RESTAURANT AND GATHERING PLACE","Brew Pub (city)","2027 13TH ST","BOULDER","CO",803045201,40.0184361,-105.2787614
"213","SKA BREWING CO","Manufacturer (brewery)","225 GIRARD DRIVE","DURANGO","CO",813037938,37.238781,-107.8762051
"214","ZWEI BRUDER BREWING CO","Manufacturer (brewery)","4612 S MASON ST E. UNIT","FORT COLLINS","CO",80525,40.522701,-105.078327
"215","PITCHERS BREWERY","Brew Pub (city)","1100 W DRAKE RD","FORT COLLINS","CO",805266008,40.553035,-105.097401
"216","SMILING TOAD BREWING CO INC.","Manufacturer (brewery)","1757 S EIGHTH ST, STE 100","COLORADO SPRINGS","CO",80906,38.806562,-104.8385274
"217","SNOWBANK BREWING","Manufacturer (brewery)","225 NORTH LEMAY AVE  UNIT 1& 8","FORT COLLINS","CO",80524,40.5902995,-105.057759
"218","SOUTH PARK BREWING LLC","Manufacturer (brewery)","297  1/2  U S HIGHWAY 285","FAIRPLAY","CO",80440,39.2216877,-105.9933511
"219","VINE STREET PUB & BREWERY","Brew Pub (city)","1700 VINE ST","DENVER","CO",80206,39.7434716,-104.9619928
"220","SOUTHERN SUN PUB & BREWERY","Brew Pub (city)","627 S BROADWAY, SUITES B-E","BOULDER","CO",80305,39.9843684,-105.2493187
"221","MOUNTAIN SUN PUB & BREWERY","Brew Pub (city)","1535 Pearl Street","BOULDER","CO",80302,40.0189103,-105.2751502
"222","STORM PEAK BREWING COMPANY","Manufacturer (brewery)","1744 LINCOLN AVE UNIT 3 & 4","STEAMBOAT SPRINGS","CO",80487,29.8814704,-90.1147554
"223","STORYBOOK BREWING","Manufacturer (brewery)","3121A N EL PASO STREET","COLORADO SPRINGS","CO",80907,38.8779634,-104.8127861
"224","STRANGE BREWING COMPANY","Manufacturer (brewery)","1330 ZUNI ST UNIT M & N","DENVER","CO",802042328,39.7373466,-105.0152334
"225","SUDS BROTHERS BREWERY","Brew Pub (city)","127 E ASPEN","FRUITA","CO",815212543,39.159159,-108.732678
"226","WILD MOUNTAIN SMOKEHOUSE & BREWERY","Brew Pub (city)","70 EAST FIRST ST","NEDERLAND","CO",80466,39.9618363,-105.5103751
"227","WOLFE BREWING COMPANY","Brew Pub (city)","2045 W HIGHWAY 160","PAGOSA SPRINGS","CO",81147,37.2702398,-107.0435777
"228","TELLURIDE BREWING COMPANY","Manufacturer (brewery)","156 DEF SOCIETY DR","TELLURIDE","CO",81435,37.9467264,-107.8783871
"229","ROCK INN THE","Brew Pub (county)","1675 HIGHWAY 66","ESTES PARK","CO",805178334,40.3617606,-105.5537468
"230","THREE BARREL BREWING COMPANY LLC","Manufacturer (brewery)","475 GRAND AVE","DEL NORTE","CO",81132,37.678688,-106.35647
"231","3 FREAKS BREWERY","Manufacturer (brewery)","7140 EAST COUNTY LINE ROAD","HIGHLANDS RANCH","CO",80126,39.5659549,-104.909255
"232","TWISTED PINE BREWING CO","Manufacturer (brewery)","3201 WALNUT ST SUITE A","BOULDER","CO",803012642,40.0207415,-105.2510584
"233","PAGOSA BREWING CO","Brew Pub (county)","100 N PAGOSA BLVD","PAGOSA SPRINGS","CO",811478470,37.254926,-107.080269
"234","PINTS PUB","Brew Pub (city)","221 W 13TH AVE","DENVER","CO",802042711,39.7368743,-104.9906886
"235","TRINITY BREWING COMPANY","Brew Pub (city)","1466 GARDEN OF THE GODS RD STE 184","COLORADO SPRINGS","CO",80907,38.89742,-104.8544421
"236","TRVE BREWING COMPANY","Manufacturer (brewery)","227 BROADWAY #101","DENVER","CO",802035940,39.7199461,-104.987962
"237","TRVE BREWING CO","Manufacturer (brewery)","2620 W 2ND AVENUE UNIT 5","DENVER","CO",80219,39.7198851,-105.0189032
"238","TWELVE DEGREE BREWING","Brew Pub (city)","820 MAIN STREET UNIT 101","LOUISVILLE","CO",80027,39.9782693,-105.13192
"239","TWENTY BELOW BREWING","Manufacturer (brewery)","824 E 78TH AVE","DENVER","CO",80229,39.8377089,-104.97648
"240","TWO RASCALS BREWING CO","Manufacturer (brewery)","147 N 1ST","MONTROSE","CO",814013601,38.478834,-107.8800626
"241","TWO22 BREW","Manufacturer (brewery)","4550 S RESERVOIR RD","AURORA","CO",80015,39.6351903,-104.7591622
"242","UPSLOPE BREWING CO","Manufacturer (brewery)","1501 LEE HILL RD #20","BOULDER","CO",803025600,40.062251,-105.2782713
"243","UPSLOPE BREWING COMPANY","Manufacturer (brewery)","1898 S FLATIRON CT, STE 120","BOULDER","CO",80301,40.020061,-105.2183257
"244","UTE PASS BREWING COMPANY","Brew Pub (city)","209 E MIDLAND","WOODLAND PARK","CO",80863,38.9945004,-105.0513114
"245","VERBOTEN BREWING","Manufacturer (brewery)","1550 TAURUS COURT","LOVELAND","CO",80537,40.400546,-105.055494
"246","VERY NICE BREWING COMPANY LLC","Manufacturer (brewery)","20 LAKEVIEW DR UNIT 112","NEDERLAND","CO",80466,39.9597894,-105.5095992
"247","BULL & BUSH LTD","Brew Pub (city)","4700 E CHERRY CREEK DR S","GLENDALE","CO",80246,39.7030961,-104.9324133
"248","ROCK BOTTOM RESTAURANT & BREWERY","Brew Pub (city)","14694 ORCHARD PKWY STE 230","WESTMINSTER","CO",80020,39.9626423,-104.9933193
"249","WALNUT BREWERY","Brew Pub (city)","1123 WALNUT ST","BOULDER","CO",803025116,40.0169565,-105.2805007
"250","ROCK BOTTOM BREWERY","Brew Pub (city)","1001 16TH ST A100","DENVER","CO",802650003,39.7478393,-104.9949079
"251","DENVER CHOP HOUSE & BREWERY THE","Brew Pub (city)","1735 19TH ST S100","DENVER","CO",802021005,39.755534,-104.9969069
"252","ROCK BOTTOM BREWERY","Brew Pub (city)","9627 E COUNTY LINE RD","CENTENNIAL","CO",801123502,39.5662581,-104.8736834
"253","ROCK BOTTOM BREWERY","Brew Pub (city)","10633 WESTMINSTER BLVD 900","WESTMINSTER","CO",800304166,39.8892762,-105.0693662
"254","ROCK BOTTOM RESTAURANT & BAR","Brew Pub (city)","3316 CINEMA PT","COLORADO SPRINGS","CO",80922,38.8811701,-104.7181626
"255","ROCK BOTTOM RESTAURANT & BREWERY","Brew Pub (city)","6025 SKY POND DR","LOVELAND","CO",805389013,40.4180629,-104.9903652
"256","WALTER BREWING COMPANY","Manufacturer (brewery)","126 S ONEIDA","PUEBLO","CO",81003,38.2623902,-104.6102419
"257","THE BREW ON BROADWAY","Manufacturer (brewery)","3445 SOUTH BROADWAY","ENGLEWOOD","CO",80113,39.6541145,-104.9879473
"258","WESTMINSTER BREWING CO","Manufacturer (brewery)","7655 W 108TH AVE","WESTMINSTER","CO",80021,39.8925374,-105.081824
"259","CB & POTTS BIG HORN BREWING CO","Brew Pub (city)","1257 WEST 120TH","WESTMINSTER","CO",802342725,39.9149286,-105.0007694
"260","GRANDMA'S HOUSE","Manufacturer (brewery)","1710 S BROADWAY","DENVER","CO",80210,39.685463,-104.987172
"261","WILD WOODS BREWERY INC","Manufacturer (brewery)","5460 CONESTOGA CT","BOULDER","CO",803012724,40.0163766,-105.2266644
"262","WILEY ROOTS BREWING COMPANY","Manufacturer (brewery)","625 3RD ST UNIT D","GREELEY","CO",80631,40.4315603,-104.6879537
"263","MOFFAT STATION","Brew Pub (city)","81699 U S HWY 40","WINTER PARK","CO",80482,39.8857123,-105.7593984
"264","WIT'S END BREWING COMPANY","Manufacturer (brewery)","2505 W 2ND AVE UNIT 13","DENVER","CO",802191653,39.7206122,-105.0176814
"265","WONDERLAND BREWING COMPANY LLC","Manufacturer (brewery)","5450 W 120TH AVE","BROOMFIELD","CO",80020,39.9133224,-105.0558566
"266","BIERWERKS","Brew Pub (city)","121 E MIDLAND AVE","WOODLAND PARK","CO",80863,38.9941418,-105.0519408
"267","WYNKOOP BREWING CO","Brew Pub (city)","1634 18TH ST","DENVER","CO",802021212,39.7534044,-104.9985257
"268","YAK & YETI","Brew Pub (city)","7803 RALSTON RD","ARVADA","CO",800022433,39.8022809,-105.0841393
"269","ZEPHYR BREWING COMPANY","Manufacturer (brewery)","1420 26TH STREET UNIT A","DENVER","CO",80205,39.759364,-104.9864058
